CTC2_L_00595001-01
1 40630U 23170J   26037.47799769  .00000000  00000+0  00000-0 0  9991
2 40630  55.0000   0.0000 0000000   0.0000   0.0000  6.30405331    11
CTC2_L_00595001-02
1 40631U 25658TY  26037.47799769  .00000000  00000+0  00000-0 0  9995
2 40631  55.0000   0.0000 0000000   0.0000  36.0000  6.30405331    11
CTC2_L_00595001-03
1 40632U 25485OD  26037.47799769  .00000000  00000+0  00000-0 0  9994
2 40632  55.0000   0.0000 0000000   0.0000  72.0000  6.30405331    12
CTC2_L_00595001-04
1 40633U 23059ZU  26037.47799769  .00000000  00000+0  00000-0 0  9990
2 40633  55.0000   0.0000 0000000   0.0000 108.0000  6.30405331    13
CTC2_L_00595001-05
1 40634U 22406LP  26037.47799769  .00000000  00000+0  00000-0 0  9996
2 40634  55.0000   0.0000 0000000   0.0000 144.0000  6.30405331    14
CTC2_L_00595001-06
1 40635U 25959EL  26037.47799769  .00000000  00000+0  00000-0 0  9993
2 40635  55.0000   0.0000 0000000   0.0000 180.0000  6.30405331    15
CTC2_L_00595001-07
1 40636U 24604EU  26037.47799769  .00000000  00000+0  00000-0 0  9990
2 40636  55.0000   0.0000 0000000   0.0000 216.0000  6.30405331    16
CTC2_L_00595001-08
1 40637U 26474NF  26037.47799769  .00000000  00000+0  00000-0 0  9998
2 40637  55.0000   0.0000 0000000   0.0000 252.0000  6.30405331    17
CTC2_L_00595001-09
1 40638U 22200JC  26037.47799769  .00000000  00000+0  00000-0 0  9992
2 40638  55.0000   0.0000 0000000   0.0000 288.0000  6.30405331    17
CTC2_L_00595001-10
1 40639U 22156KE  26037.47799769  .00000000  00000+0  00000-0 0  9993
2 40639  55.0000   0.0000 0000000   0.0000 324.0000  6.30405331    19
CTC2_L_00595002-01
1 40640U 26549RM  26037.47799769  .00000000  00000+0  00000-0 0  9995
2 40640  55.0000  30.0000 0000000   0.0000  12.0000  6.30405331    18
CTC2_L_00595002-02
1 40641U 23463UG  26037.47799769  .00000000  00000+0  00000-0 0  9998
2 40641  55.0000  30.0000 0000000   0.0000  48.0000  6.30405331    18
CTC2_L_00595002-03
1 40642U 26045ZY  26037.47799769  .00000000  00000+0  00000-0 0  9998
2 40642  55.0000  30.0000 0000000   0.0000  84.0000  6.30405331    19
CTC2_L_00595002-04
1 40643U 23888MP  26037.47799769  .00000000  00000+0  00000-0 0  9991
2 40643  55.0000  30.0000 0000000   0.0000 120.0000  6.30405331    11
CTC2_L_00595002-05
1 40644U 22532UE  26037.47799769  .00000000  00000+0  00000-0 0  9997
2 40644  55.0000  30.0000 0000000   0.0000 156.0000  6.30405331    11
CTC2_L_00595002-06
1 40645U 26971LV  26037.47799769  .00000000  00000+0  00000-0 0  9999
2 40645  55.0000  30.0000 0000000   0.0000 192.0000  6.30405331    12
CTC2_L_00595002-07
1 40646U 24058PH  26037.47799769  .00000000  00000+0  00000-0 0  9994
2 40646  55.0000  30.0000 0000000   0.0000 228.0000  6.30405331    13
CTC2_L_00595002-08
1 40647U 22436DQ  26037.47799769  .00000000  00000+0  00000-0 0  9993
2 40647  55.0000  30.0000 0000000   0.0000 264.0000  6.30405331    14
CTC2_L_00595002-09
1 40648U 26926DC  26037.47799769  .00000000  00000+0  00000-0 0  9992
2 40648  55.0000  30.0000 0000000   0.0000 300.0000  6.30405331    16
CTC2_L_00595002-10
1 40649U 22655DK  26037.47799769  .00000000  00000+0  00000-0 0  9998
2 40649  55.0000  30.0000 0000000   0.0000 336.0000  6.30405331    16
CTC2_L_00595003-01
1 40650U 24084MG  26037.47799769  .00000000  00000+0  00000-0 0  9998
2 40650  55.0000  60.0000 0000000   0.0000  24.0000  6.30405331    15
CTC2_L_00595003-02
1 40651U 22020NJ  26037.47799769  .00000000  00000+0  00000-0 0  9997
2 40651  55.0000  60.0000 0000000   0.0000  60.0000  6.30405331    16
CTC2_L_00595003-03
1 40652U 24274DN  26037.47799769  .00000000  00000+0  00000-0 0  9991
2 40652  55.0000  60.0000 0000000   0.0000  96.0000  6.30405331    16
CTC2_L_00595003-04
1 40653U 22510TY  26037.47799769  .00000000  00000+0  00000-0 0  9993
2 40653  55.0000  60.0000 0000000   0.0000 132.0000  6.30405331    18
CTC2_L_00595003-05
1 40654U 26270GO  26037.47799769  .00000000  00000+0  00000-0 0  9991
2 40654  55.0000  60.0000 0000000   0.0000 168.0000  6.30405331    18
CTC2_L_00595003-06
1 40655U 25307DW  26037.47799769  .00000000  00000+0  00000-0 0  9992
2 40655  55.0000  60.0000 0000000   0.0000 204.0000  6.30405331    10
CTC2_L_00595003-07
1 40656U 23827IA  26037.47799769  .00000000  00000+0  00000-0 0  9998
2 40656  55.0000  60.0000 0000000   0.0000 240.0000  6.30405331    11
CTC2_L_00595003-08
1 40657U 24653WU  26037.47799769  .00000000  00000+0  00000-0 0  9997
2 40657  55.0000  60.0000 0000000   0.0000 276.0000  6.30405331    11
CTC2_L_00595003-09
1 40658U 22460MN  26037.47799769  .00000000  00000+0  00000-0 0  9992
2 40658  55.0000  60.0000 0000000   0.0000 312.0000  6.30405331    13
CTC2_L_00595003-10
1 40659U 22395QP  26037.47799769  .00000000  00000+0  00000-0 0  9990
2 40659  55.0000  60.0000 0000000   0.0000 348.0000  6.30405331    13
CTC2_L_00595004-01
1 40660U 24043ZF  26037.47799769  .00000000  00000+0  00000-0 0  9994
2 40660  55.0000  90.0000 0000000   0.0000  36.0000  6.30405331    12
CTC2_L_00595004-02
1 40661U 22734YD  26037.47799769  .00000000  00000+0  00000-0 0  9990
2 40661  55.0000  90.0000 0000000   0.0000  72.0000  6.30405331    13
CTC2_L_00595004-03
1 40662U 26680YK  26037.47799769  .00000000  00000+0  00000-0 0  9995
2 40662  55.0000  90.0000 0000000   0.0000 108.0000  6.30405331    14
CTC2_L_00595004-04
1 40663U 23774EV  26037.47799769  .00000000  00000+0  00000-0 0  9997
2 40663  55.0000  90.0000 0000000   0.0000 144.0000  6.30405331    15
CTC2_L_00595004-05
1 40664U 25885JC  26037.47799769  .00000000  00000+0  00000-0 0  9993
2 40664  55.0000  90.0000 0000000   0.0000 180.0000  6.30405331    16
CTC2_L_00595004-06
1 40665U 25591UF  26037.47799769  .00000000  00000+0  00000-0 0  9998
2 40665  55.0000  90.0000 0000000   0.0000 216.0000  6.30405331    17
CTC2_L_00595004-07
1 40666U 26174XV  26037.47799769  .00000000  00000+0  00000-0 0  9997
2 40666  55.0000  90.0000 0000000   0.0000 252.0000  6.30405331    18
CTC2_L_00595004-08
1 40667U 25966H   26037.47799769  .00000000  00000+0  00000-0 0  9996
2 40667  55.0000  90.0000 0000000   0.0000 288.0000  6.30405331    18
CTC2_L_00595004-09
1 40668U 24841TM  26037.47799769  .00000000  00000+0  00000-0 0  9998
2 40668  55.0000  90.0000 0000000   0.0000 324.0000  6.30405331    10
CTC2_L_00595004-10
1 40669U 24556MH  26037.47799769  .00000000  00000+0  00000-0 0  9992
2 40669  55.0000  90.0000 0000000   0.0000   0.0000  6.30405331    12
CTC2_L_00595005-01
1 40670U 26345CN  26037.47799769  .00000000  00000+0  00000-0 0  9992
2 40670  55.0000 120.0000 0000000   0.0000  48.0000  6.30405331    10
CTC2_L_00595005-02
1 40671U 22760KQ  26037.47799769  .00000000  00000+0  00000-0 0  9990
2 40671  55.0000 120.0000 0000000   0.0000  84.0000  6.30405331    11
CTC2_L_00595005-03
1 40672U 26176VC  26037.47799769  .00000000  00000+0  00000-0 0  9996
2 40672  55.0000 120.0000 0000000   0.0000 120.0000  6.30405331    13
CTC2_L_00595005-04
1 40673U 22452NF  26037.47799769  .00000000  00000+0  00000-0 0  9990
2 40673  55.0000 120.0000 0000000   0.0000 156.0000  6.30405331    13
CTC2_L_00595005-05
1 40674U 22905IN  26037.47799769  .00000000  00000+0  00000-0 0  9994
2 40674  55.0000 120.0000 0000000   0.0000 192.0000  6.30405331    14
CTC2_L_00595005-06
1 40675U 22783EP  26037.47799769  .00000000  00000+0  00000-0 0  9999
2 40675  55.0000 120.0000 0000000   0.0000 228.0000  6.30405331    15
CTC2_L_00595005-07
1 40676U 26300IN  26037.47799769  .00000000  00000+0  00000-0 0  9999
2 40676  55.0000 120.0000 0000000   0.0000 264.0000  6.30405331    16
CTC2_L_00595005-08
1 40677U 22019ET  26037.47799769  .00000000  00000+0  00000-0 0  9993
2 40677  55.0000 120.0000 0000000   0.0000 300.0000  6.30405331    18
CTC2_L_00595005-09
1 40678U 24451RB  26037.47799769  .00000000  00000+0  00000-0 0  9996
2 40678  55.0000 120.0000 0000000   0.0000 336.0000  6.30405331    18
CTC2_L_00595005-10
1 40679U 26577GQ  26037.47799769  .00000000  00000+0  00000-0 0  9998
2 40679  55.0000 120.0000 0000000   0.0000  12.0000  6.30405331    10
CTC2_L_00595006-01
1 40680U 24669RW  26037.47799769  .00000000  00000+0  00000-0 0  9990
2 40680  55.0000 150.0000 0000000   0.0000  60.0000  6.30405331    18
CTC2_L_00595006-02
1 40681U 24527IE  26037.47799769  .00000000  00000+0  00000-0 0  9994
2 40681  55.0000 150.0000 0000000   0.0000  96.0000  6.30405331    18
CTC2_L_00595006-03
1 40682U 26686NZ  26037.47799769  .00000000  00000+0  00000-0 0  9993
2 40682  55.0000 150.0000 0000000   0.0000 132.0000  6.30405331    10
CTC2_L_00595006-04
1 40683U 25408AY  26037.47799769  .00000000  00000+0  00000-0 0  9995
2 40683  55.0000 150.0000 0000000   0.0000 168.0000  6.30405331    10
CTC2_L_00595006-05
1 40684U 23598QF  26037.47799769  .00000000  00000+0  00000-0 0  9994
2 40684  55.0000 150.0000 0000000   0.0000 204.0000  6.30405331    12
CTC2_L_00595006-06
1 40685U 25259MD  26037.47799769  .00000000  00000+0  00000-0 0  9991
2 40685  55.0000 150.0000 0000000   0.0000 240.0000  6.30405331    13
CTC2_L_00595006-07
1 40686U 24909TD  26037.47799769  .00000000  00000+0  00000-0 0  9993
2 40686  55.0000 150.0000 0000000   0.0000 276.0000  6.30405331    13
CTC2_L_00595006-08
1 40687U 26956JH  26037.47799769  .00000000  00000+0  00000-0 0  9998
2 40687  55.0000 150.0000 0000000   0.0000 312.0000  6.30405331    15
CTC2_L_00595006-09
1 40688U 25607XV  26037.47799769  .00000000  00000+0  00000-0 0  9991
2 40688  55.0000 150.0000 0000000   0.0000 348.0000  6.30405331    15
CTC2_L_00595006-10
1 40689U 26217LT  26037.47799769  .00000000  00000+0  00000-0 0  9990
2 40689  55.0000 150.0000 0000000   0.0000  24.0000  6.30405331    17
CTC2_L_00595007-01
1 40690U 24003LU  26037.47799769  .00000000  00000+0  00000-0 0  9993
2 40690  55.0000 180.0000 0000000   0.0000  72.0000  6.30405331    15
CTC2_L_00595007-02
1 40691U 23764GZ  26037.47799769  .00000000  00000+0  00000-0 0  9997
2 40691  55.0000 180.0000 0000000   0.0000 108.0000  6.30405331    16
